CSS (WENTIAN)           
1 53239U 22085A   22244.90390738  .00007293  00000+0  84944-4 0  9995
2 53239  41.4720 111.6171 0005882 238.9696 238.0374 15.61986949 76767
STARLINK-4056           
1 53242U 22086A   22246.25001157 -.01059987  00000+0 -22624-1 0  9998
2 53242  53.2175 203.0946 0001222  60.0748 287.9426 15.47188256  7021
STARLINK-4047           
1 53243U 22086B   22246.25001157 -.01135251  00000+0 -54167-1 0  9995
2 53243  53.2176 205.9659 0001608  44.9866 266.2162 15.21370868  6980
STARLINK-4125           
1 53244U 22086C   22245.91668981 -.01133405  00000+0 -51363-1 0  9996
2 53244  53.2177 207.5089 0001549  44.8538 280.0974 15.23102910  1305
STARLINK-4124           
1 53245U 22086D   22245.91668981 -.01133443  00000+0 -52320-1 0  9993
2 53245  53.2176 207.4986 0001407  58.6588 239.1862 15.22485024  1301
STARLINK-4131           
1 53246U 22086E   22245.91668981 -.01133560  00000+0 -51840-1 0  9990
2 53246  53.2177 207.5039 0001641  41.7656 269.6392 15.22797143  1306
STARLINK-4061           
1 53247U 22086F   22245.91668981 -.01045533  00000+0 -21487-1 0  9997
2 53247  53.2172 204.6971 0001260  70.9672 221.0436 15.48227758  1303
STARLINK-4135           
1 53248U 22086G   22245.91668981 -.01057024  00000+0 -21516-1 0  9999
2 53248  53.2177 204.7090 0001204  73.2789 220.2755 15.48530944  1304
STARLINK-4128           
1 53249U 22086H   22246.25001157 -.01051604  00000+0 -10718-1 0  9994
2 53249  53.2176 201.8716 0001224  69.5925 195.4869 15.67192023  7037
STARLINK-4059           
1 53250U 22086J   22245.91668981 -.01079887  00000+0 -10696-1 0  9990
2 53250  53.2173 203.5117 0001286  78.7566 102.9127 15.67960934  1309
STARLINK-4129           
1 53251U 22086K   22245.91668981 -.01049681  00000+0 -10362-1 0  9990
2 53251  53.2177 203.5137 0001223  86.2947  97.9963 15.67964388  1302
STARLINK-4132           
1 53252U 22086L   22245.91668981 -.01049698  00000+0 -10371-1 0  9999
2 53252  53.2177 203.5085 0001223  86.4609  95.8756 15.67943788  1300
STARLINK-4133           
1 53253U 22086M   22246.25001157 -.01051696  00000+0 -10710-1 0  9992
2 53253  53.2177 201.8803 0001205  72.6505 194.4071 15.67212805  7033
STARLINK-4134           
1 53254U 22086N   22246.25001157 -.01051614  00000+0 -10715-1 0  9998
2 53254  53.2176 201.8741 0001239  66.9240 198.8148 15.67198973  7035
STARLINK-4142           
1 53255U 22086P   22245.91668981 -.01050824  00000+0 -10366-1 0  9999
2 53255  53.2177 203.5210 0001068  69.1933 117.0511 15.67985792  1305
STARLINK-4147           
1 53256U 22086Q   22245.91668981 -.01049502  00000+0 -10354-1 0  9998
2 53256  53.2177 203.5181 0001268  70.9463 114.6472 15.67978103  1300
STARLINK-4144           
1 53257U 22086R   22245.91668981 -.01049483  00000+0 -10342-1 0  9994
2 53257  53.2178 203.5282 0001266  70.9793 117.2182 15.68005772  1309
STARLINK-4127           
1 53258U 22086S   22245.91668981 -.01049667  00000+0 -10350-1 0  9998
2 53258  53.2177 203.5230 0001236  78.8779 108.0178 15.67992025  1308
STARLINK-4140           
1 53259U 22086T   22245.91668981 -.01049559  00000+0 -10340-1 0  9998
2 53259  53.2178 203.5297 0001234  78.6358 110.2126 15.68012694  1306
STARLINK-4136           
1 53260U 22086U   22245.91668981 -.01049568  00000+0 -10346-1 0  9996
2 53260  53.2178 203.5255 0001229  80.1309 107.4157 15.67998916  1301
STARLINK-4062           
1 53261U 22086V   22245.91668981 -.00975748  00000+0 -95446-2 0  9999
2 53261  53.2173 203.5346 0003394 289.1800 261.6524 15.67973789  1302
STARLINK-4085           
1 53262U 22086W   22245.91668981 -.01159043  00000+0 -11304-1 0  9993
2 53262  53.2173 203.5298 0001217  68.9977 120.4630 15.68091601  1304
STARLINK-4130           
1 53263U 22086X   22245.91668981 -.01049469  00000+0 -10327-1 0  9998
2 53263  53.2178 203.5366 0001315  63.6686 127.7827 15.68040144  1308
STARLINK-3950           
1 53264U 22086Y   22245.91668981 -.01049728  00000+0 -10336-1 0  9997
2 53264  53.2178 203.5314 0001231  81.3279 108.8222 15.68026441  1307
STARLINK-4097           
1 53265U 22086Z   22245.91668981 -.01153192  00000+0 -11226-1 0  9998
2 53265  53.2175 203.5406 0001276  65.6412 127.0728 15.68123520  1300
STARLINK-4058           
1 53266U 22086AA  22245.91668981 -.01150327  00000+0 -11200-1 0  9998
2 53266  53.2174 203.5381 0001292  68.7062 123.3604 15.68113058  1302
STARLINK-4060           
1 53267U 22086AB  22245.91668981 -.01135102  00000+0 -11035-1 0  9999
2 53267  53.2175 203.5431 0001249  70.5075 124.0641 15.68117159  1302
STARLINK-4109           
1 53268U 22086AC  22245.91668981 -.01136803  00000+0 -11054-1 0  9990
2 53268  53.2174 203.5416 0001198  67.9342 125.4401 15.68115879  1301
STARLINK-4057           
1 53269U 22086AD  22245.91668981  .00038293  00000+0  27604-3 0  9992
2 53269  53.2171 203.4868 0002352  21.3737 195.5624 15.73196541  1300
STARLINK-4069           
1 53271U 22086AF  22245.91668981  .00040246  00000+0  29025-3 0  9995
2 53271  53.2171 203.4836 0002663  14.4217 203.7120 15.73161364  1307
STARLINK-4122           
1 53272U 22086AG  22245.91668981 -.00057715  00000+0 -40881-3 0  9990
2 53272  53.2171 203.4866 0003126  10.1316 206.1895 15.73238112  1301
STARLINK-4051           
1 53273U 22086AH  22246.25001157  .00056704  00000+0  40602-3 0  9991
2 53273  53.2165 201.8332 0002509  27.9003 280.2525 15.73180301  7033
STARLINK-4050           
1 53274U 22086AJ  22245.91668981  .00038531  00000+0  27815-3 0  9997
2 53274  53.2170 203.4837 0002456  25.2487 192.2802 15.73159952  1308
STARLINK-4179           
1 53275U 22086AK  22245.91668981  .00039494  00000+0  28450-3 0  9993
2 53275  53.2171 203.4794 0003409   6.6783 213.1809 15.73194966  1307
STARLINK-4174           
1 53276U 22086AL  22245.91668981  .00037378  00000+0  26998-3 0  9998
2 53276  53.2175 203.4849 0002994  15.1841 203.5379 15.73159988  1301
STARLINK-4178           
1 53277U 22086AM  22245.91668981  .00003543  00000+0  29666-4 0  9992
2 53277  53.2170 203.4757 0002401  19.0032 202.6864 15.73194244  1306
STARLINK-4180           
1 53278U 22086AN  22246.25001157  .00045765  00000+0  32877-3 0  9996
2 53278  53.2163 201.8294 0002723  22.8395 286.5161 15.73193892  7033
STARLINK-4169           
1 53280U 22086AQ  22245.91668981  .00037791  00000+0  27290-3 0  9998
2 53280  53.2171 203.4769 0002342  18.5890 202.5023 15.73161410  1309
STARLINK-4182           
1 53281U 22086AR  22245.91668981 -.00065750  00000+0 -46664-3 0  9993
2 53281  53.2172 203.4731 0003045  13.2196 210.2385 15.73246265  1301
STARLINK-4164           
1 53282U 22086AS  22245.91668981 -.00066608  00000+0 -47285-3 0  9997
2 53282  53.2173 203.4759 0002321  23.6786 198.6013 15.73249278  1303
STARLINK-4175           
1 53283U 22086AT  22245.91668981 -.00067060  00000+0 -47622-3 0  9996
2 53283  53.2176 203.4743 0002385  19.8358 204.2211 15.73243549  1301
STARLINK-4172           
1 53284U 22086AU  22245.91668981  .00040242  00000+0  28985-3 0  9999
2 53284  53.2171 203.4731 0002339  16.3342 206.5722 15.73192138  1307
STARLINK-4173           
1 53285U 22086AV  22245.91668981  .00038800  00000+0  28003-3 0  9998
2 53285  53.2176 203.4704 0002484  27.9008 197.9571 15.73161581  1304
STARLINK-4165           
1 53286U 22086AW  22246.25001157  .00050527  00000+0  36243-3 0  9998
2 53286  53.2165 201.8220 0002378  20.9053 292.6558 15.73187473  7035
STARLINK-4107           
1 53287U 22086AX  22246.25001157  .00054400  00000+0  38999-3 0  9993
2 53287  53.2154 201.8169 0002893  16.8959 298.9715 15.73168156  7038
STARLINK-4162           
1 53288U 22086AY  22245.91668981  .00035442  00000+0  25600-3 0  9990
2 53288  53.2167 203.4664 0002362  21.3683 203.9031 15.73187596  1307
STARLINK-4176           
1 53289U 22086AZ  22246.25001157  .00059605  00000+0  42616-3 0  9998
2 53289  53.2168 201.8165 0002748  21.0419 296.0673 15.73193829  7036
STARLINK-4149           
1 53290U 22086BA  22245.91668981  .00038466  00000+0  27723-3 0  9990
2 53290  53.2170 203.4656 0002539  21.4175 205.0487 15.73198322  1305
STARLINK-4166           
1 53291U 22086BB  22246.25001157  .00066462  00000+0  47446-3 0  9996
2 53291  53.2154 201.8133 0002764  27.1820 290.5117 15.73185636  7039
STARLINK-4159           
1 53292U 22086BC  22245.91668981  .00039836  00000+0  28677-3 0  9993
2 53292  53.2171 203.4635 0002418  25.4945 202.1331 15.73209294  1307
STARLINK-4148           
1 53293U 22086BD  22245.91668981  .00040043  00000+0  28841-3 0  9999
2 53293  53.2176 203.4630 0002332  20.1579 209.2870 15.73195173  1304
STARLINK-4146           
1 53294U 22086BE  22245.91668981 -.00056793  00000+0 -40227-3 0  9993
2 53294  53.2171 203.4587 0002110  20.7278 209.2903 15.73237397  1309
2022-087A               
1 53299U 22087A   22246.18912951  .00003161  00000+0  14389-3 0  9997
2 53299  97.4019 319.9920 0016265 146.2914 298.0371 15.21310278  5780
2022-087B               
1 53300U 22087B   22246.30334568  .00003072  00000+0  13848-3 0  9996
2 53300  97.4018 320.1264 0016076 152.4679 247.9836 15.21678010  5807
2022-087C               
1 53301U 22087C   22246.17839887  .00002922  00000+0  13163-3 0  9999
2 53301  97.4016 320.0052 0016783 152.5129 291.5427 15.21727937  5787
2022-087D               
1 53302U 22087D   22246.17085703  .00005568  00000+0  24510-3 0  9997
2 53302  97.4024 320.0201 0015812 158.8006 285.9288 15.22142121  5787
2022-087E               
1 53303U 22087E   22246.17005106  .00003457  00000+0  15352-3 0  9996
2 53303  97.4049 320.0321 0017019 157.7756 286.7546 15.22087844  5785
1998-067TQ              
1 53305U 98067TQ  22246.09971545  .00020062  00000+0  32867-3 0  9990
2 53305  51.6416 310.2426 0001462 176.0177 184.0825 15.52460368  6757
YUZGU 8                 
1 53306U 98067TR  22246.22204754  .00035570  00000+0  56742-3 0  9995
2 53306  51.6414 309.5608 0000791 174.3755 185.7244 15.52868925  6772
